$$SOE
2459580.500000000, A.D. 2022-Jan-01 00:00:00.0000, 3.394780359823264E+08, -2.446311032251695E+08, -2.180360644315132E+07,
2459587.500000000, A.D. 2022-Jan-08 00:00:00.0000, 3.458509053119365E+08, -2.357566962581409E+08, -2.183621143945907E+07,
2459594.500000000, A.D. 2022-Jan-15 00:00:00.0000, 3.519960627028612E+08, -2.267268809509947E+08, -2.185441148560306E+07,
2459601.500000000, A.D. 2022-Jan-22 00:00:00.0000, 3.579096915638547E+08, -2.175477580312077E+08, -2.185820870926863E+07,
2459608.500000000, A.D. 2022-Jan-29 00:00:00.0000, 3.635881499504327E+08, -2.082255212658626E+08, -2.184761551230739E+07,
2459615.500000000, A.D. 2022-Feb-05 00:00:00.0000, 3.690279707481521E+08, -1.987664525612902E+08, -2.182265437634823E+07,
2459622.500000000, A.D. 2022-Feb-12 00:00:00.0000, 3.742258638194571E+08, -1.891769180668191E+08, -2.178335794250279E+07,
2459629.500000000, A.D. 2022-Feb-19 00:00:00.0000, 3.791787187885057E+08, -1.794633629216368E+08, -2.172976905028380E+07,
2459636.500000000, A.D. 2022-Feb-26 00:00:00.0000, 3.838836071527430E+08, -1.696323053770231E+08, -2.166194067488175E+07,
2459643.500000000, A.D. 2022-Mar-05 00:00:00.0000, 3.883377838806111E+08, -1.596903309201605E+08, -2.157993582825983E+07,
2459650.500000000, A.D. 2022-Mar-12 00:00:00.0000, 3.925386887176615E+08, -1.496440864743333E+08, -2.148382745027555E+07,
2459657.500000000, A.D. 2022-Mar-19 00:00:00.0000, 3.964839472731473E+08, -1.395002746564861E+08, -2.137369829458111E+07,
2459664.500000000, A.D. 2022-Mar-26 00:00:00.0000, 4.001713719110626E+08, -1.292656481072255E+08, -2.124964081238668E+07,
2459671.500000000, A.D. 2022-Apr-02 00:00:00.0000, 4.035989625150459E+08, -1.189470039584523E+08, -2.111175704543519E+07,
2459678.500000000, A.D. 2022-Apr-09 00:00:00.0000, 4.067649074001092E+08, -1.085511784426894E+08, -2.096015855329905E+07,
2459685.500000000, A.D. 2022-Apr-16 00:00:00.0000, 4.096675847296128E+08, -9.808504099731022E+07, -2.079496635474694E+07,
2459692.500000000, A.D. 2022-Apr-23 00:00:00.0000, 4.123055631734685E+08, -8.755548678665011E+07, -2.061631067854150E+07,
2459699.500000000, A.D. 2022-Apr-30 00:00:00.0000, 4.146775999437894E+08, -7.696942989736320E+07, -2.042433053612356E+07,
2459706.500000000, A.D. 2022-May-07 00:00:00.0000, 4.167826392734072E+08, -6.633379919047956E+07, -2.021917355896825E+07,
2459713.500000000, A.D. 2022-May-14 00:00:00.0000, 4.186198127288593E+08, -5.565553377919333E+07, -2.000099598019203E+07,
2459720.500000000, A.D. 2022-May-21 00:00:00.0000, 4.201884393317248E+08, -4.494157738086197E+07, -1.976996251248638E+07,
2459727.500000000, A.D. 2022-May-28 00:00:00.0000, 4.214880250152674E+08, -3.419887251009309E+07, -1.952624615724043E+07,
2459734.500000000, A.D. 2022-Jun-04 00:00:00.0000, 4.225182616987114E+08, -2.343435483412973E+07, -1.927002799626855E+07,
2459741.500000000, A.D. 2022-Jun-11 00:00:00.0000, 4.232790261280556E+08, -1.265494769658279E+07, -1.900149697963192E+07,
2459748.500000000, A.D. 2022-Jun-18 00:00:00.0000, 4.237703785252248E+08, -1.867556803654423E+06, -1.872084971236405E+07,
2459755.500000000, A.D. 2022-Jun-25 00:00:00.0000, 4.239925610776708E+08, 8.920934888138168E+06, -1.842829024582467E+07,
2459762.500000000, A.D. 2022-Jul-02 00:00:00.0000, 4.239459964060666E+08, 1.970367201275123E+07, -1.812402989169940E+07,
2459769.500000000, A.D. 2022-Jul-09 00:00:00.0000, 4.236312864051585E+08, 3.047383153734495E+07, -1.780828708039527E+07,
2459776.500000000, A.D. 2022-Jul-16 00:00:00.0000, 4.230492114083088E+08, 4.122462848721869E+07, -1.748128717057839E+07,
2459783.500000000, A.D. 2022-Jul-23 00:00:00.0000, 4.222007274870093E+08, 5.194932272862794E+07, -1.714326200199865E+07,
2459790.500000000, A.D. 2022-Jul-30 00:00:00.0000, 4.210869619811724E+08, 6.264122345003644E+07, -1.679444947379372E+07,
2459797.500000000, A.D. 2022-Aug-06 00:00:00.0000, 4.197092108650217E+08, 7.329369198312391E+07, -1.643509342583882E+07,
2459804.500000000, A.D. 2022-Aug-13 00:00:00.0000, 4.180689371289501E+08, 8.390014571426304E+07, -1.606544352266506E+07,
2459811.500000000, A.D. 2022-Aug-20 00:00:00.0000, 4.161677686133381E+08, 9.445406258089256E+07, -1.568575503720309E+07,
2459818.500000000, A.D. 2022-Aug-27 00:00:00.0000, 4.140074953685821E+08, 1.049489854243267E+08, -1.529628860011126E+07,
2459825.500000000, A.D. 2022-Sep-03 00:00:00.0000, 4.115900667954445E+08, 1.153785260869418E+08, -1.489730994664844E+07,
2459832.500000000, A.D. 2022-Sep-10 00:00:00.0000, 4.089175886621433E+08, 1.257363692765597E+08, -1.448908966762452E+07,
2459839.500000000, A.D. 2022-Sep-17 00:00:00.0000, 4.059923200341425E+08, 1.360162761955428E+08, -1.407190296754684E+07,
2459846.500000000, A.D. 2022-Sep-24 00:00:00.0000, 4.028166701839438E+08, 1.462120878831995E+08, -1.364602943999759E+07,
2459853.500000000, A.D. 2022-Oct-01 00:00:00.0000, 3.993931957279682E+08, 1.563177282484216E+08, -1.321175288451613E+07,
2459860.500000000, A.D. 2022-Oct-08 00:00:00.0000, 3.957245984037481E+08, 1.663272073128197E+08, -1.276936116021901E+07,
2459867.500000000, A.D. 2022-Oct-15 00:00:00.0000, 3.918137225584961E+08, 1.762346258624395E+08, -1.231914589304821E+07,
2459874.500000000, A.D. 2022-Oct-22 00:00:00.0000, 3.876635501722013E+08, 1.860341798267385E+08, -1.186140197428085E+07,
2459881.500000000, A.D. 2022-Oct-29 00:00:00.0000, 3.832771959217070E+08, 1.957201617929376E+08, -1.139642729192124E+07,
2459888.500000000, A.D. 2022-Nov-05 00:00:00.0000, 3.786579043900309E+08, 2.052869623963026E+08, -1.092452266423707E+07,
2459895.500000000, A.D. 2022-Nov-12 00:00:00.0000, 3.738090474594719E+08, 2.147290728552340E+08, -1.044599169208367E+07,
2459902.500000000, A.D. 2022-Nov-19 00:00:00.0000, 3.687341211746023E+08, 2.240410877000205E+08, -9.961140542391986E+06,
2459909.500000000, A.D. 2022-Nov-26 00:00:00.0000, 3.634367423438013E+08, 2.332177073005980E+08, -9.470277719738141E+06,
2459916.500000000, A.D. 2022-Dec-03 00:00:00.0000, 3.579206450516915E+08, 2.422537401839973E+08, -8.973713842491120E+06,
2459923.500000000, A.D. 2022-Dec-10 00:00:00.0000, 3.521896771338403E+08, 2.511441051621155E+08, -8.471761426408365E+06,
2459930.500000000, A.D. 2022-Dec-17 00:00:00.0000, 3.462477966437076E+08, 2.598838332467704E+08, -7.964734680116534E+06,
2459937.500000000, A.D. 2022-Dec-24 00:00:00.0000, 3.400990684261277E+08, 2.684680692884582E+08, -7.452949327952042E+06,
2459944.500000000, A.D. 2022-Dec-31 00:00:00.0000, 3.337476611599910E+08, 2.768920734487705E+08, -6.936722484255731E+06,
2459951.500000000, A.D. 2023-Jan-07 00:00:00.0000, 3.271978449973050E+08, 2.851512234701095E+08, -6.416372511898562E+06,
2459958.500000000, A.D. 2023-Jan-14 00:00:00.0000, 3.204539878328850E+08, 2.932410182402763E+08, -5.892218643950313E+06,
2459965.500000000, A.D. 2023-Jan-21 00:00:00.0000, 3.135205495620646E+08, 3.011570794845144E+08, -5.364580568248212E+06,
2459972.500000000, A.D. 2023-Jan-28 00:00:00.0000, 3.064020780012819E+08, 3.088951513947489E+08, -4.833778327374279E+06,
2459979.500000000, A.D. 2023-Feb-04 00:00:00.0000, 2.991032062672852E+08, 3.164511012251585E+08, -4.300132267681837E+06,
2459986.500000000, A.D. 2023-Feb-11 00:00:00.0000, 2.916286498219981E+08, 3.238209206626182E+08, -3.763962888428479E+06,
2459993.500000000, A.D. 2023-Feb-18 00:00:00.0000, 2.839832031229352E+08, 3.310007271516110E+08, -3.225590652379394E+06,
2460000.500000000, A.D. 2023-Feb-25 00:00:00.0000, 2.761717361450431E+08, 3.379867650137236E+08, -2.685335795154840E+06,
2460007.500000000, A.D. 2023-Mar-04 00:00:00.0000, 2.681991908779956E+08, 3.447754063816631E+08, -2.143518141093925E+06,
2460014.500000000, A.D. 2023-Mar-11 00:00:00.0000, 2.600705778279109E+08, 3.513631519498017E+08, -1.600456928059503E+06,
2460021.500000000, A.D. 2023-Mar-18 00:00:00.0000, 2.517909725702941E+08, 3.577466314950168E+08, -1.056470649255380E+06,
2460028.500000000, A.D. 2023-Mar-25 00:00:00.0000, 2.433655125582625E+08, 3.639226041260837E+08, -5.118769341842979E+05,
2460035.500000000, A.D. 2023-Apr-01 00:00:00.0000, 2.347993946136470E+08, 3.698879586615673E+08, 3.300752477291226E+04,
2460042.500000000, A.D. 2023-Apr-08 00:00:00.0000, 2.260978724901668E+08, 3.756397153654588E+08, 5.778671567801833E+05,
2460049.500000000, A.D. 2023-Apr-15 00:00:00.0000, 2.172662521732443E+08, 3.811750279352313E+08, 1.122387932136953E+06,
2460056.500000000, A.D. 2023-Apr-22 00:00:00.0000, 2.083098867258497E+08, 3.864911826946390E+08, 1.666257602117419E+06,
2460063.500000000, A.D. 2023-Apr-29 00:00:00.0000, 1.992341734191803E+08, 3.915855972491778E+08, 2.209165692208409E+06,
2460070.500000000, A.D. 2023-May-06 00:00:00.0000, 1.900445513897657E+08, 3.964558203862236E+08, 2.750803555531889E+06,
2460077.500000000, A.D. 2023-May-13 00:00:00.0000, 1.807464988457451E+08, 4.010995323275911E+08, 3.290864502996206E+06,
2460084.500000000, A.D. 2023-May-20 00:00:00.0000, 1.713455300562929E+08, 4.055145448460043E+08, 3.829043948492825E+06,
2460091.500000000, A.D. 2023-May-27 00:00:00.0000, 1.618471923178450E+08, 4.096988012188445E+08, 4.365039548828661E+06,
2460098.500000000, A.D. 2023-Jun-03 00:00:00.0000, 1.522570629549035E+08, 4.136503760478615E+08, 4.898551335031629E+06,
2460105.500000000, A.D. 2023-Jun-10 00:00:00.0000, 1.425807463792860E+08, 4.173674749336775E+08, 5.429281831510752E+06,
2460112.500000000, A.D. 2023-Jun-17 00:00:00.0000, 1.328238712967785E+08, 4.208484339475372E+08, 5.956936149800748E+06,
2460119.500000000, A.D. 2023-Jun-24 00:00:00.0000, 1.229920883809574E+08, 4.240917189587824E+08, 6.481222031932712E+06,
2460126.500000000, A.D. 2023-Jul-01 00:00:00.0000, 1.130910686675731E+08, 4.270959256496590E+08, 7.001849887718797E+06,
2460133.500000000, A.D. 2023-Jul-08 00:00:00.0000, 1.031265009967736E+08, 4.298597810415772E+08, 7.518533046390414E+06,
2460140.500000000, A.D. 2023-Jul-15 00:00:00.0000, 9.310408722533907E+07, 4.323821437019249E+08, 8.030988108428091E+06,
2460147.500000000, A.D. 2023-Jul-22 00:00:00.0000, 8.302953872740532E+07, 4.346620016001809E+08, 8.538934990353554E+06,
$$EOE